[{"OBJECT_NAME":"YAOGAN-31 03C","OBJECT_ID":"2021-014E","EPOCH":"2026-03-10T00:23:44.728224","MEAN_MOTION":13.45441798,"ECCENTRICITY":0.01685112,"INCLINATION":63.4015,"RA_OF_ASC_NODE":92.564,"ARG_OF_PERICENTER":0.4997,"MEAN_ANOMALY":359.6168,"EPHEMERIS_TYPE":0,"CLASSIFICATION_TYPE":"U","NORAD_CAT_ID":47695,"ELEMENT_SET_NO":999,"REV_AT_EPOCH":24738,"BSTAR":0.00041950117,"MEAN_MOTION_DOT":1.81e-6,"MEAN_MOTION_DDOT":0},{"OBJECT_NAME":"FENGYUN 1C DEB","OBJECT_ID":"1999-025ME","EPOCH":"2026-03-09T08:23:33.534816","MEAN_MOTION":13.5251951,"ECCENTRICITY":0.0344482,"INCLINATION":99.313,"RA_OF_ASC_NODE":30.1345,"ARG_OF_PERICENTER":234.4193,"MEAN_ANOMALY":122.4387,"EPHEMERIS_TYPE":0,"CLASSIFICATION_TYPE":"U","NORAD_CAT_ID":30005,"ELEMENT_SET_NO":999,"REV_AT_EPOCH":94117,"BSTAR":0.00091141651,"MEAN_MOTION_DOT":8.34e-6,"MEAN_MOTION_DDOT":0}]
